COSMOS 2251 DEB         
1 38067U 93036BRZ 26155.10045344  .00001440  00000+0  28539-3 0  9993
2 38067  74.0171 302.5211 0069882  47.2102  75.1212 14.61693642650886
COSMOS 2251 DEB         
1 38068U 93036BSA 26159.77644566  .00000571  00000+0  20381-3 0  9993
2 38068  74.0216 341.0318 0025834  28.5240 331.7320 14.36262345692024
COSMOS 2251 DEB         
1 38197U 93036BSM 26160.24953838  .00020747  00000+0  24250-2 0  9990
2 38197  73.9354   4.4291 0110204 195.3607 164.4218 14.80731638883927
COSMOS 2251 DEB         
1 38199U 93036BSP 26160.23462917  .00000847  00000+0  67809-3 0  9991
2 38199  73.9542 128.8545 0366467  20.1909 341.3274 13.65079255634570
COSMOS 2251 DEB         
1 38208U 93036BSY 26160.05388641  .00016619  00000+0  16635-2 0  9997
2 38208  74.0003  82.5777 0007685 159.5721 216.8111 14.91380602738113
COSMOS 2251 DEB         
1 38212U 93036BTC 26151.27726063  .00003245  00000+0  41707-3 0  9990
2 38212  74.0487 103.8218 0090920 126.2265 234.7359 14.78701628838157
COSMOS 2251 DEB         
1 38220U 93036BTL 26160.01675823  .00034057  00000+0  23216-2 0  9997
2 38220  74.0089  65.5023 0005224 170.6241 189.5047 15.06080674740439
COSMOS 2251 DEB         
1 38479U 93036BTP 26158.44833794  .00003508  00000+0  10762-2 0  9999
2 38479  74.0055 217.4959 0083314 285.7666  90.8404 14.40044592672306
COSMOS 2251 DEB         
1 38481U 93036BTR 26160.38759110  .00001301  00000+0  78653-3 0  9990
2 38481  73.9333  58.6109 0226306 323.4158  35.1693 13.95619985615520
COSMOS 2251 DEB         
1 38483U 93036BTT 26159.06246452  .00002211  00000+0  81355-3 0  9999
2 38483  74.2610  54.1115 0113566 106.7176 254.6475 14.29623176660113
COSMOS 2251 DEB         
1 38486U 93036BTW 26156.87662360  .00016407  00000+0  21973-2 0  9999
2 38486  73.9367 219.7926 0032270 322.6850 155.3000 14.79061481780192
COSMOS 2251 DEB         
1 38487U 93036BTX 26158.32131345  .00086031  00000+0  21861-2 0  9992
2 38487  73.9652  17.8884 0024318 147.1569 213.1155 15.38932499694966
COSMOS 2251 DEB         
1 39109U 93036BTY 26157.51372956  .00002572  00000+0  40459-3 0  9992
2 39109  74.0423 243.6339 0058992 302.8740  70.1885 14.71936646677591
COSMOS 2251 DEB         
1 39110U 93036BTZ 26159.52526341  .00001405  00000+0  20900-3 0  9999
2 39110  73.9570  73.6027 0094019 263.7992 276.1512 14.73101196651013
COSMOS 2251 DEB         
1 39546U 93036BUC 26160.20477201  .00009745  00000+0  83348-3 0  9999
2 39546  73.9957 136.1303 0042106 250.2751 109.3890 14.97021277671038
COSMOS 2251 DEB         
1 39547U 93036BUD 26155.31771127  .00096904  00000+0  34738-2 0  9991
2 39547  74.0000  16.3945 0013237 140.0480 338.4947 15.28182334666544
COSMOS 2251 DEB         
1 39553U 93036BUK 26159.85911194  .00002459  00000+0  13822-2 0  9994
2 39553  74.0280  21.2772 0208039 115.9735 246.2993 14.00619355781108
COSMOS 2251 DEB         
1 39554U 93036BUL 26145.78846779  .00087149  00000+0  26337-2 0  9992
2 39554  74.0038 279.3103 0006937  43.6063 316.5689 15.33799746668802
COSMOS 2251 DEB         
1 39583U 93036BUN 26158.99638602  .00004666  00000+0  79377-3 0  9991
2 39583  73.9307 265.4514 0132653 340.2182  19.3865 14.63714287643701
COSMOS 2251 DEB         
1 39585U 93036BUQ 26157.72971742  .00001062  00000+0  22532-3 0  9996
2 39585  74.0413 326.1721 0066142  42.4808 318.1448 14.59097798650872
COSMOS 2251 DEB         
1 39586U 93036BUR 26160.05160029  .00000414  00000+0  19046-3 0  9991
2 39586  74.0094 268.0227 0101504   1.7230 177.6226 14.21559439635051
COSMOS 2251 DEB         
1 39591U 93036BUW 26160.08764551  .00000803  00000+0  25029-3 0  9990
2 39591  74.0212 275.7969 0029930 347.6187 192.6822 14.42275143643476
COSMOS 2251 DEB         
1 40218U 93036BUX 26159.06268719  .00000958  00000+0  29947-3 0  9993
2 40218  74.0312 280.1076 0017081 324.9484  35.0546 14.42007121614173
COSMOS 2251 DEB         
1 40223U 93036BVC 26157.49274197  .00209770  00000+0  56311-2 0  9998
2 40223  73.9267  79.0751 0023358 196.3451 163.7004 15.36768801620415
COSMOS 2251 DEB         
1 40228U 93036BVH 26159.12746264  .00000818  00000+0  25994-3 0  9990
2 40228  74.0549 292.5036 0023879 312.5240 228.9000 14.41345705614769
COSMOS 2251 DEB         
1 40230U 93036BVK 26158.03371514  .00002076  00000+0  53862-3 0  9997
2 40230  74.0440 256.0748 0017814 273.4784 265.2710 14.50300399615265
COSMOS 2251 DEB         
1 40233U 93036BVN 26158.25453379  .00004101  00000+0  84621-3 0  9992
2 40233  73.9383 124.6091 0045143 161.1196 199.1657 14.60121831617124
COSMOS 2251 DEB         
1 40236U 93036BVR 26137.05148891  .00000826  00000+0  90140-3 0  9993
2 40236  73.5373 258.8811 0535364 125.0933 240.1576 13.24963438556810
COSMOS 2251 DEB         
1 40237U 93036BVS 26149.09015427  .00304824  00000+0  69731-2 0  9995
2 40237  74.0088  56.7691 0017325 180.3046 244.3347 15.41415658620475
COSMOS 2251 DEB         
1 40238U 93036BVT 26154.69815033  .00001237  00000+0  12778-2 0  9990
2 40238  73.9894 157.8566 0545852  96.8300 269.5185 13.25676013563286
COSMOS 2251 DEB         
1 40239U 93036BVU 26160.12910013  .00001014  00000+0  19554-3 0  9993
2 40239  74.0332 293.9865 0085364   0.8442 178.5981 14.62634533622180
COSMOS 2251 DEB         
1 40792U 93036BVV 26160.48174448  .00004095  00000+0  69136-3 0  9993
2 40792  74.0444  61.7763 0017641 123.5559  55.3940 14.69665136658086
COSMOS 2251 DEB         
1 40793U 93036BVW 26149.49675064  .00000953  00000+0  48256-3 0  9991
2 40793  73.9778 230.6187 0214517 350.2018   9.4963 14.06225820706039
COSMOS 2251 DEB         
1 40794U 93036BVX 26158.63861082  .00049696  00000+0  31967-2 0  9992
2 40794  73.9700 122.7915 0015720 222.1308 314.7351 15.08044588645789
COSMOS 2251 DEB         
1 40796U 93036BVZ 26157.73332788  .00005617  00000+0  66074-3 0  9993
2 40796  74.0109 153.3497 0055125 245.9170 290.5581 14.83989430787671
COSMOS 2251 DEB         
1 40797U 93036BWA 26160.06186461  .00011998  00000+0  57707-3 0  9991
2 40797  73.9350  82.3178 0062344 307.8313  51.7249 15.17101072673435
COSMOS 2251 DEB         
1 40799U 93036BWC 26160.10147171  .00004028  00000+0  29566-3 0  9991
2 40799  73.9253  94.6149 0115342 294.1665  64.7495 14.98621496526471
COSMOS 2251 DEB         
1 40802U 93036BWF 26158.74821209  .00003615  00000+0  47576-3 0  9996
2 40802  74.0390 165.2077 0061419 218.9328 140.7418 14.79247353670251
COSMOS 2251 DEB         
1 40803U 93036BWG 26160.49253973  .00000797  00000+0  20190-3 0  9990
2 40803  74.0138  74.6569 0033708 246.6202 113.1412 14.52251393613479
COSMOS 2251 DEB         
1 40808U 93036BWM 26160.26765112  .00005466  00000+0  90505-3 0  9998
2 40808  74.0399 159.8923 0007857 170.2316 206.5353 14.70503948662412
COSMOS 2251 DEB         
1 40810U 93036BWP 26158.12501172  .00002819  00000+0  59411-3 0  9997
2 40810  74.0357  98.4986 0019271 202.7966 157.2346 14.59831028642569
COSMOS 2251 DEB         
1 46271U 93036BWT 26160.11553113  .00000748  00000+0  19092-3 0  9998
2 46271  74.0457 102.5690 0040269 179.0752 181.0492 14.51828518872302
COSMOS 2251 DEB         
1 46430U 93036BWU 26157.34636540  .00006282  00000+0  14140-2 0  9999
2 46430  73.9124  22.5397 0092463 262.7698  96.2946 14.53993206822333
COSMOS 2251 DEB         
1 46432U 93036BWW 26148.45971611  .00000674  00000+0  70536-3 0  9995
2 46432  73.8707 208.5385 0474239 297.6981  75.1403 13.36869393691945
COSMOS 2251 DEB         
1 47045U 93036BWZ 26160.32621787  .00000134  00000+0  51637-4 0  9995
2 47045  74.0564 180.1929 0030485 276.9439 100.4206 14.38991392103745
COSMOS 2251 DEB         
1 47048U 93036BXC 26158.78427410  .00008306  00000+0  17426-2 0  9997
2 47048  73.9815 343.6406 0134901 127.8383 251.1570 14.54183943622625
COSMOS 2251 DEB         
1 47051U 93036BXF 26159.03320225  .00000854  00000+0  69119-3 0  9993
2 47051  74.1011 253.6658 0342072 326.1617 217.1491 13.67715957623616
COSMOS 2251 DEB         
1 47052U 93036BXG 26148.44483588  .00000724  00000+0  25436-3 0  9999
2 47052  74.0499  34.6945 0058559  69.0295 110.4599 14.35757846641816
COSMOS 2251 DEB         
1 47053U 93036BXH 26160.19465326  .00001299  00000+0  10890-2 0  9991
2 47053  74.0598 325.0685 0381336  99.0308  69.8736 13.60134081313144
COSMOS 2251 DEB         
1 47059U 93036BXP 26160.40908646  .00202749  00000+0  34518-2 0  9994
2 47059  73.9629 214.8056 0018739 317.4435  42.5325 15.50401572110344
COSMOS 2251 DEB         
1 47061U 93036BXR 26158.75482807  .00777332  23547-3  29836-2 0  9995
2 47061  73.9600 171.1196 0012346 250.4822 109.5077 15.87172609670952
COSMOS 2251 DEB         
1 47062U 93036BXS 26159.24636249  .00001325  00000+0  10106-2 0  9999
2 47062  74.0795 145.3035 0325085 230.0923 144.7892 13.72400823580374
COSMOS 2251 DEB         
1 47068U 93036BXY 26158.88110289  .00003069  00000+0  72514-3 0  9994
2 47068  74.0240 228.4905 0018783 277.9938  81.9093 14.54495278643312
COSMOS 2251 DEB         
1 47069U 93036BXZ 26159.16262282  .00020273  00000+0  22132-2 0  9994
2 47069  74.0101 120.2822 0001338 107.9208 252.2118 14.87859761751303
COSMOS 2251 DEB         
1 47073U 93036BYD 26158.96940472  .00000567  00000+0  32733-3 0  9993
2 47073  74.0837 253.4042 0160867 248.9496 109.4374 14.05074286628508
COSMOS 2251 DEB         
1 47074U 93036BYE 26131.99918538  .00002253  00000+0  68281-3 0  9997
2 47074  74.0955  33.4846 0139289  24.8688 351.8639 14.37356054 48409
COSMOS 2251 DEB         
1 47116U 93036BYJ 26158.98311436  .00024616  00000+0  15897-2 0  9997
2 47116  74.0192 238.2834 0020513 301.8313 236.2193 15.07988652621741
COSMOS 2251 DEB         
1 53093U 93036BYP 26160.50526907  .00001702  00000+0  51679-3 0  9990
2 53093  74.0361 329.8501 0020687  12.2647 347.9008 14.42808108203031
